[{"OBJECT_NAME":"STARLINK-4004","OBJECT_ID":"2022-053A","EPOCH":"2026-03-09T22:58:17.419584","MEAN_MOTION":15.08840462,"ECCENTRICITY":0.00014121,"INCLINATION":53.2174,"RA_OF_ASC_NODE":152.9314,"ARG_OF_PERICENTER":80.9128,"MEAN_ANOMALY":279.2024,"EPHEMERIS_TYPE":0,"CLASSIFICATION_TYPE":"U","NORAD_CAT_ID":52656,"ELEMENT_SET_NO":999,"REV_AT_EPOCH":21115,"BSTAR":4.1718227e-5,"MEAN_MOTION_DOT":3.76e-6,"MEAN_MOTION_DDOT":0},{"OBJECT_NAME":"SL-24 PLAT","OBJECT_ID":"2014-033AR","EPOCH":"2026-03-09T22:47:27.152448","MEAN_MOTION":15.0919716,"ECCENTRICITY":0.00052059,"INCLINATION":98.0981,"RA_OF_ASC_NODE":61.9435,"ARG_OF_PERICENTER":212.2329,"MEAN_ANOMALY":147.8581,"EPHEMERIS_TYPE":0,"CLASSIFICATION_TYPE":"U","NORAD_CAT_ID":40049,"ELEMENT_SET_NO":999,"REV_AT_EPOCH":63724,"BSTAR":0.00046923352,"MEAN_MOTION_DOT":7.393e-5,"MEAN_MOTION_DDOT":0}]
